NORAD_CAT_ID,OBJECT_NAME,OBJECT_TYPE,EPOCH,MEAN_MOTION,ECCENTRICITY,INCLINATION,RA_OF_ASC_NODE,ARG_OF_PERICENTER,MEAN_ANOMALY,BSTAR,MEAN_MOTION_DOT,MEAN_MOTION_DDOT,TLE_LINE0,TLE_LINE1,TLE_LINE2,SEMIMAJOR_AXIS,PERIOD,APOGEE,PERIGEE,DECAYED
53149.0,STARLINK-4021,PAYLOAD,2022-08-08 20:00:01,15.733090400000002,0.0002406,53.2176,296.742,18.4918,133.685,-0.0010163,-0.00141563,0.0,0 STARLINK-4021,1 53149U 22083T   22220.83335648 -.00141563  00000-0 -10163-2 0  9990,2 53149  53.2176 296.7420 0002406  18.4918 133.6850 15.73309040  4159,6727.584,91.527,351.0680000000001,347.831,0.0
53149.0,STARLINK-4021,PAYLOAD,2022-08-08 22:00:00,15.73273559,0.0002316,53.2177,296.3291,18.4806,245.8932,-0.00073424,-0.00102756,0.0,0 STARLINK-4021,1 53149U 22083T   22220.91667824 -.00102756  00000-0 -73424-3 0  9994,2 53149  53.2177 296.3291 0002316  18.4806 245.8932 15.73273559  1304,6727.685,91.529,351.1090000000001,347.992,0.0
53149.0,STARLINK-4021,PAYLOAD,2022-08-09 04:00:00,15.73204769,0.0002207,53.2176,295.0912,19.0296,222.0737,-0.00017517,-0.00025139,0.0,0 STARLINK-4021,1 53149U 22083T   22221.16667824 -.00025139  00000-0 -17517-3 0  9992,2 53149  53.2176 295.0912 0002207  19.0296 222.0737 15.73204769  4207,6727.882,91.533,351.231,348.26199999999994,0.0
53149.0,STARLINK-4021,PAYLOAD,2022-08-09 12:00:00,15.73195323,0.0002487,53.2173,293.4439,18.8615,311.15,-0.00071191,-0.0009936,0.0,0 STARLINK-4021,1 53149U 22083T   22221.50001157 -.00099360  00000-0 -71191-3 0  9996,2 53149  53.2173 293.4439 0002487  18.8615 311.1500 15.73195323  4250,6727.909000000002,91.533,351.44699999999995,348.1,0.0
53149.0,STARLINK-4021,PAYLOAD,2022-08-09 14:00:01,15.73172041,0.0002539,53.2174,293.032,18.213,64.028,-0.00058013,-0.00081176,0.0,0 STARLINK-4021,1 53149U 22083T   22221.58334491 -.00081176  00000-0 -58013-3 0  9998,2 53149  53.2174 293.0320 0002539  18.2130  64.0280 15.73172041  1304,6727.975,91.535,351.548,348.13199999999995,0.0
53149.0,STARLINK-4021,PAYLOAD,2022-08-09 22:00:00,15.730978099999998,0.000245,53.2173,291.3811,19.4956,151.6107,-4.41e-05,-6.779e-05,0.0,0 STARLINK-4021,1 53149U 22083T   22221.91667824 -.00006779  00000-0 -44100-4 0  9993,2 53149  53.2173 291.3811 0002450  19.4956 151.6107 15.73097810  1301,6728.187,91.539,351.7,348.403,0.0
53149.0,STARLINK-4021,PAYLOAD,2022-08-10 04:00:00,15.73087544,0.0002384,53.2173,290.1435,24.1019,123.6046,0.00053873,0.00075308,0.0,0 STARLINK-4021,1 53149U 22083T   22222.16667824  .00075308  00000-0  53873-3 0  9999,2 53149  53.2173 290.1435 0002384  24.1019 123.6046 15.73087544  4362,6728.215999999999,91.54,351.685,348.477,0.0
53149.0,STARLINK-4021,PAYLOAD,2022-08-10 14:00:01,15.73111516,0.0002748,53.2174,288.0845,22.5197,326.2207,0.00052422,0.00073324,0.0,0 STARLINK-4021,1 53149U 22083T   22222.58334491  .00073324  00000-0  52422-3 0  9991,2 53149  53.2174 288.0845 0002748  22.5197 326.2207 15.73111516  1305,6728.147,91.538,351.861,348.164,0.0
53149.0,STARLINK-4021,PAYLOAD,2022-08-10 22:00:00,15.731598000000002,0.000259,53.2171,286.4336,22.6534,54.942,0.00021546,0.00029675,0.0,0 STARLINK-4021,1 53149U 22083T   22222.91667824  .00029675  00000-0  21546-3 0  9990,2 53149  53.2171 286.4336 0002590  22.6534  54.9420 15.73159800  1300,6728.01,91.536,351.617,348.13199999999995,0.0
53149.0,STARLINK-4021,PAYLOAD,2022-08-11 04:00:00,15.73174359,0.0002569,53.2169,285.1961,25.6993,28.5596,0.00042667,0.00059626,0.0,0 STARLINK-4021,1 53149U 22083T   22223.16667824  .00059626  00000-0  42667-3 0  9994,2 53149  53.2169 285.1961 0002569  25.6993  28.5596 15.73174359  4518,6727.968000000003,91.535,351.56199999999984,348.105,0.0
53149.0,STARLINK-4021,PAYLOAD,2022-08-11 14:00:01,15.73188731,0.0002892,53.2164,283.1368,23.318,232.1014,0.00056103,0.00078831,0.0,0 STARLINK-4021,1 53149U 22083T   22223.58334491  .00078831  00000-0  56103-3 0  9990,2 53149  53.2164 283.1368 0002892  23.3180 232.1014 15.73188731  1305,6727.927,91.534,351.73800000000006,347.847,0.0
53149.0,STARLINK-4021,PAYLOAD,2022-08-11 20:00:01,15.73252366,0.0002763,53.216,281.8983,23.7858,208.3371,-2.1753000000000007e-05,-3.682e-05,0.0,0 STARLINK-4021,1 53149U 22083T   22223.83334491 -.00003682  00000-0 -21753-4 0  9996,2 53149  53.2160 281.8983 0002763  23.7858 208.3371 15.73252366  4627,6727.746,91.53,351.47,347.75199999999984,0.0
53149.0,STARLINK-4021,PAYLOAD,2022-08-12 04:00:00,15.73290426,0.0002616,53.2162,280.2476,24.8332,296.276,-6.4226e-05,-9.663e-05,0.0,0 STARLINK-4021,1 53149U 22083T   22224.16667824 -.00009663  00000-0 -64226-4 0  9999,2 53149  53.2162 280.2476 0002616  24.8332 296.2760 15.73290426  4677,6727.637,91.528,351.26199999999994,347.742,0.0
53149.0,STARLINK-4021,PAYLOAD,2022-08-12 14:00:01,15.73244616,0.0002863,53.2162,278.1879,18.4357,143.9704,8.5974e-05,0.00011485,0.0,0 STARLINK-4021,1 53149U 22083T   22224.58334491  .00011485  00000-0  85974-4 0  9992,2 53149  53.2162 278.1879 0002863  18.4357 143.9704 15.73244616  1303,6727.768,91.531,351.559,347.707,0.0
53149.0,STARLINK-4021,PAYLOAD,2022-08-12 20:00:01,15.73247826,0.0002751,53.216,276.9492,16.8231,122.3936,-0.00020677,-0.00029605,0.0,0 STARLINK-4021,1 53149U 22083T   22224.83335648 -.00029605  00000-0 -20677-3 0  9998,2 53149  53.2160 276.9492 0002751  16.8231 122.3936 15.73247826  4786,6727.759,91.53,351.475,347.773,0.0
53149.0,STARLINK-4021,PAYLOAD,2022-08-12 22:00:01,15.73213849,0.0002697,53.2161,276.5363,17.3644,234.1065,0.00029325,0.00040764,0.0,0 STARLINK-4021,1 53149U 22083T   22224.91668981  .00040764  00000-0  29325-3 0  9992,2 53149  53.2161 276.5363 0002697  17.3644 234.1065 15.73213849  1301,6727.856,91.532,351.535,347.906,0.0
53149.0,STARLINK-4021,PAYLOAD,2022-08-13 14:00:01,15.73122844,0.0002944,53.2151,273.2392,18.0546,51.2594,0.00045369,0.00063332,0.0,0 STARLINK-4021,1 53149U 22083T   22225.58334491  .00063332  00000-0  45369-3 0  9994,2 53149  53.2151 273.2392 0002944  18.0546  51.2594 15.73122844  1309,6728.115,91.538,351.961,347.999,0.0
53149.0,STARLINK-4021,PAYLOAD,2022-08-13 22:00:00,15.73147636,0.0002728999999999,53.2152,271.5877,18.4216,139.7607,0.00037708,0.00052519,0.0,0 STARLINK-4021,1 53149U 22083T   22225.91667824  .00052519  00000-0  37708-3 0  9993,2 53149  53.2152 271.5877 0002729  18.4216 139.7607 15.73147636  1301,6728.044,91.536,351.746,348.0730000000001,0.0
53149.0,STARLINK-4021,PAYLOAD,2022-08-14 04:00:00,15.73185059,0.000265,53.2157,270.3483,22.2441,112.5964,0.00027017,0.00037445,0.0,0 STARLINK-4021,1 53149U 22083T   22226.16667824  .00037445  00000-0  27017-3 0  9994,2 53149  53.2157 270.3483 0002650  22.2441 112.5964 15.73185059  4996,6727.938,91.534,351.586,348.02,0.0
53149.0,STARLINK-4021,PAYLOAD,2022-08-14 14:00:01,15.73222302,0.0003053,53.2152,268.2905,17.3372,318.6836,0.0001131,0.00015297,0.0,0 STARLINK-4021,1 53149U 22083T   22226.58334491  .00015297  00000-0  11310-3 0  9991,2 53149  53.2152 268.2905 0003053  17.3372 318.6836 15.73222302  1304,6727.831999999999,91.532,351.751,347.64300000000014,0.0
53149.0,STARLINK-4021,PAYLOAD,2022-08-14 22:00:00,15.73177931,0.0002744,53.2153,266.6387,16.3349,48.6701,0.00041996,0.00058682,0.0,0 STARLINK-4021,1 53149U 22083T   22226.91667824  .00058682  00000-0  41996-3 0  9995,2 53149  53.2153 266.6387 0002744  16.3349  48.6701 15.73177931  1308,6727.958000000001,91.534,351.6690000000001,347.977,0.0
53149.0,STARLINK-4021,PAYLOAD,2022-08-15 04:00:00,15.73244341,0.0002774999999999,53.2153,265.4016,15.9508,25.7292,-0.00051597,-0.00072567,0.0,0 STARLINK-4021,1 53149U 22083T   22227.16667824 -.00072567  00000-0 -51597-3 0  9991,2 53149  53.2153 265.4016 0002775  15.9508  25.7292 15.73244341  5147,6727.769,91.531,351.501,347.767,0.0
53149.0,STARLINK-4021,PAYLOAD,2022-08-15 14:00:01,15.73152187,0.0003027,53.2146,263.3415,12.1545,230.702,0.00051236,0.00071766,0.0,0 STARLINK-4021,1 53149U 22083T   22227.58334491  .00071766  00000-0  51236-3 0  9996,2 53149  53.2146 263.3415 0003027  12.1545 230.7020 15.73152187  1307,6728.031,91.536,351.93300000000005,347.86,0.0
53149.0,STARLINK-4021,PAYLOAD,2022-08-15 20:00:01,15.7320006,0.0002842999999999,53.2148,262.1027,13.7634,205.7715,0.00011405,0.00015416,0.0,0 STARLINK-4021,1 53149U 22083T   22227.83334491  .00015416  00000-0  11405-3 0  9998,2 53149  53.2148 262.1027 0002843  13.7634 205.7715 15.73200060  5251,6727.895,91.533,351.673,347.847,0.0
53149.0,STARLINK-4021,PAYLOAD,2022-08-15 22:00:00,15.73178395,0.0002767,53.2147,261.6899,14.0724,317.7029,0.00051479,0.00072192,0.0,0 STARLINK-4021,1 53149U 22083T   22227.91667824  .00072192  00000-0  51479-3 0  9995,2 53149  53.2147 261.6899 0002767  14.0724 317.7029 15.73178395  1309,6727.956999999999,91.534,351.68300000000005,347.96,0.0
53149.0,STARLINK-4021,PAYLOAD,2022-08-16 14:00:01,15.73179267,0.0003049,53.215,258.3926,10.9861,138.6985,0.00050764,0.00071177,0.0,0 STARLINK-4021,1 53149U 22083T   22228.58334491  .00071177  00000-0  50764-3 0  9998,2 53149  53.2150 258.3926 0003049  10.9861 138.6985 15.73179267  1308,6727.954000000002,91.534,351.871,347.76800000000014,0.0
53149.0,STARLINK-4021,PAYLOAD,2022-08-16 22:00:00,15.73227794,0.0002852,53.2152,256.7409,13.558,225.069,1.242e-05,1.123e-05,0.0,0 STARLINK-4021,1 53149U 22083T   22228.91667824  .00001123  00000-0  12420-4 0  9996,2 53149  53.2152 256.7409 0002852  13.5580 225.0690 15.73227794  1309,6727.816,91.532,351.6,347.76199999999994,0.0
53149.0,STARLINK-4021,PAYLOAD,2022-08-17 06:00:02,15.73203045,0.0003034,53.215,255.0923,18.0366,309.6186,-6.9256e-05,-0.00010334,0.0,0 STARLINK-4021,1 53149U 22083T   22229.25002315 -.00010334  00000-0 -69256-4 0  9997,2 53149  53.2150 255.0923 0003034  18.0366 309.6186 15.73203045  5479,6727.886,91.533,351.793,347.71,0.0
53149.0,STARLINK-4021,PAYLOAD,2022-08-17 14:00:01,15.73220668,0.0003196,53.2144,253.4437,16.2192,40.2931,-0.00029506,-0.00041876,0.0,0 STARLINK-4021,1 53149U 22083T   22229.58334491 -.00041876  00000-0 -29506-3 0  9994,2 53149  53.2144 253.4437 0003196  16.2192  40.2931 15.73220668  1304,6727.8359999999975,91.532,351.851,347.551,0.0
